STARLINK-6293           
1 57354U 23099AC  26068.49352233 -.00006253  00000+0 -44795-3 0  9999
2 57354  43.0020 237.3044 0001372 264.3928  95.6758 15.02557385146232
LEMUR-2-ALISIA          
1 62706U 25009DB  26068.73770453  .00009177  00000+0  72005-3 0  9995
2 62706  97.7037 151.6973 0006582 159.9869 200.1615 15.01147598 85230
